IRIDIUM 112             
1 41925U 17003J   24261.51903854  .00001338  00000+0  47046-3 0  9990
2 41925  86.4027 354.7845 0002105  84.0465 276.0971 14.34227205401907
IRIDIUM 111             
1 41926U 17003K   24261.50636300  .00000418  00000+0  14203-3 0  9996
2 41926  86.4030 354.8464 0001907  89.1333 271.0081 14.34214890401924
IRIDIUM 113             
1 42803U 17039A   24261.41655470  .00000757  00000+0  26333-3 0  9992
2 42803  86.3970 228.6254 0002132  81.7680 278.3758 14.34215633379774
IRIDIUM 123             
1 42804U 17039B   24261.52781221 -.00000117  00000+0 -48923-4 0  9991
2 42804  86.3913 260.0735 0002016  92.0051 268.1375 14.34216084378552
IRIDIUM 120             
1 42805U 17039C   24261.41021531  .00000010  00000+0 -33540-5 0  9992
2 42805  86.3960 228.4932 0002350  89.8680 270.2785 14.34217011379769
IRIDIUM 115             
1 42806U 17039D   24261.41354028  .00000161  00000+0  41832-4 0  9991
2 42806  86.4497 228.5304 0002104  77.9894 282.1543 14.43274958382279
IRIDIUM 118             
1 42807U 17039E   24261.48975584  .00000070  00000+0  18089-4 0  9992
2 42807  86.3912 260.0903 0002358  91.8884 268.2582 14.34218013378545
IRIDIUM 117             
1 42808U 17039F   24261.50878466  .00000103  00000+0  29765-4 0  9997
2 42808  86.3908 260.0460 0002156  88.3184 271.8259 14.34216998378573
